C/2019 O2 (PANSTARRS),e,93.3033,48.2617,129.5799,58.70342,0.0021913,0.83508277,1.5972,04/04.0/2025,2000,g  5.0,4.0
# From MPC182878
C/2019 O3 (Palomar),h,03/08.6728/2021,89.7982,300.4733,60.1071,1.003014,8.820873,2000,3.5,4.0
# From MPEC 2021-P47
A/2019 O4,e,115.0156,354.9273,61.8332,33.24437,0.0051419,0.89041901,9.6609,04/04.0/2025,2000,g 15.5,2.0
# From MPEC 2024-EF7
C/2019 Q1 (Lemmon),h,07/22.0706/2020,155.7240,42.4645,56.2575,1.002323,5.003570,2000,8.5,4.0
# From MPC117072
A/2019 Q2,e,158.9797,188.1097,176.5035,58.75158,0.0021886,0.97852628,0.0000,07/23.4601/2019,2000,g 18.0,2.0
# From MPC117072
P/2019 S2 (PANSTARRS),e,10.4637,93.1804,216.9604,4.747164,0.0952912,0.20466887,213.2811,04/04.0/2025,2000,g 13.5,4.0
# From MPEC 2022-CN4
P/2019 S3 (PANSTARRS),e,8.6938,150.1423,213.0936,3.414586,0.1562058,0.47078151,319.5175,04/04.0/2025,2000,g 18.3,4.0
# From MPEC 2021-S45
C/2019 S4 (Lemmon),e,92.1010,63.1570,71.3718,247.6711,0.0002529,0.98611224,0.0000,04/09.2305/2020,2000,g 11.0,4.0
# From MPEC 2023-N01
A/2019 T1,e,120.8284,6.9332,90.9942,38.78168,0.0040810,0.88975666,6.2847,04/04.0/2025,2000,g 13.0,2.0
# From MPEC 2023-R20
C/2019 T2 (Lemmon),e,111.3828,155.6555,239.3938,3764,0.0000043,0.99929775,0.0000,04/22.5869/2021,2000,g  9.0,4.0
# From MPEC 2023-UR6
C/2019 T3 (ATLAS),e,121.8695,139.5412,112.4858,4278,0.0000035,0.99860823,0.0000,03/04.6353/2021,2000,g  6.8,4.0
# From MPC182878
C/2019 T4 (ATLAS),e,53.6251,199.9090,351.1089,877.9017,0.0000379,0.99517266,0.0000,06/08.6502/2022,2000,g  5.0,4.0
# From MPEC 2021-P47
P/2019 T5 (ATLAS),e,33.4962,247.6119,189.6173,8.006690,0.0435035,0.80980792,90.0809,04/04.0/2025,2000,g 15.0,4.0
# From MPEC 2021-P47
P/2019 T6 (PANSTARRS),e,18.6995,71.2455,329.0556,5.442397,0.0776281,0.62257606,153.1607,04/04.0/2025,2000,g 15.5,4.0
# From MPC118096
P/2019 U4 (PANSTARRS),e,11.6956,200.0048,181.0777,3.518985,0.1493062,0.47578239,301.8438,04/04.0/2025,2000,g 19.0,4.0
# From MPC182879
C/2019 U5 (PANSTARRS),h,03/29.5027/2023,113.5124,2.6168,181.4519,1.000301,3.624058,2000,4.5,4.0
# From MPEC 2022-H04
C/2019 U6 (Lemmon),e,60.9790,235.7637,329.4380,305.6088,0.0001845,0.99703119,0.0000,06/18.2932/2020,2000,g 10.0,4.0
# From MPEC 2022-N37
C/2019 V1 (Borisov),e,61.9492,83.1480,51.1879,2441,0.0000082,0.99873299,0.0000,07/17.4283/2020,2000,g 11.0,4.0
# From MPEC 2022-L66
P/2019 V2 (Groeller),e,11.8069,189.1451,335.6264,7.494699,0.0480367,0.33178530,78.2969,04/04.0/2025,2000,g 10.0,4.0
# From MPEC 2023-A50
P/2019 W1 (PANSTARRS),e,23.4681,35.3653,18.8767,4.548543,0.1016005,0.26723589,218.8639,04/04.0/2025,2000,g 12.9,4.0
# From MPEC 2021-P47
P/2019 X1 (Pruyne),e,10.2467,43.6782,36.9665,6.178821,0.0641720,0.30389241,133.5067,04/04.0/2025,2000,g 10.4,4.0
# From MPEC 2020-C98
P/2019 X2 (Pan-STARRS),e,15.8948,250.8345,213.5035,3.634364,0.1422530,0.50044710,276.0300,04/04.0/2025,2000,g 18.0,4.0
# From MPC119999
C/2019 Y1 (ATLAS),e,73.3006,31.4915,57.9114,88.06950,0.0011925,0.99061531,0.0000,03/17.1031/2020,2000,g 13.7,4.0
# From MPEC 2024-A43
C/2019 Y4 (ATLAS),e,44.9548,120.7826,177.4160,334.6109,0.0001610,0.99923145,0.0000,05/29.8362/2020,2000,g 11.8,6.0
# From MPEC 2020-L06
C/2019 Y4-A (ATLAS),h,05/29.8858/2020,45.3903,121.1498,177.2485,1.001373,0.255321,2000,11.6,6.0
# From MPEC 2025-CE3
C/2019 Y4-B (ATLAS),e,45.0363,120.8457,177.3752,1430,0.0000182,0.99982036,0.0000,05/29.8437/2020,2000,g 12.1,6.0
# From MPEC 2020-L06
C/2019 Y4-C (ATLAS),h,05/29.8388/2020,45.1739,120.8771,177.2813,1.002101,0.256394,2000,12.7,6.0
# From MPEC 2020-L06
C/2019 Y4-D (ATLAS),e,45.2262,121.2397,177.4236,67.46463,0.0017786,0.99620972,0.0000,05/29.9345/2020,2000,g 12.5,6.0
# From MPEC 2023-A50
C/2019 Y5 (PANSTARRS),e,82.7702,51.7613,303.6566,691.9720,0.0000541,0.99287176,0.0000,08/16.7334/2019,2000,g 11.0,4.0
# From MPEC 2023-A50
A/2020 A1,e,149.0317,119.0737,302.4002,25.47040,0.0076674,0.93441195,14.9633,04/04.0/2025,2000,g 18.0,2.0
# From MPEC 2022-YN2
C/2020 A2 (Iwamoto),e,120.5114,286.1949,68.0138,994.4345,0.0000314,0.99901977,0.0000,01/07.3494/2020,2000,g 13.5,4.0
# From MPEC 2023-A50
C/2020 A3 (ATLAS),e,146.6242,120.7996,268.2445,6274,0.0000020,0.99908303,0.0000,06/27.1967/2019,2000,g  8.0,4.0
# From MPEC 2022-P91
P/2020 A4 (PANSTARRS-Lemmon),e,25.0011,312.2897,144.8855,8.201678,0.0419614,0.65448390,82.1455,04/04.0/2025,2000,g 15.0,4.0
# From MPEC 2020-N08
A/2020 B1,e,18.5382,309.8169,154.8567,52.00949,0.0026277,0.96656769,5.0569,04/04.0/2025,2000,g 21.0,2.0
# From MPEC 2020-HN5
C/2020 B2 (Lemmon),e,55.7540,354.1942,143.6168,67.83457,0.0017641,0.95937067,3.3409,04/04.0/2025,2000,g 10.0,4.0
# From MPEC 2022-N37
C/2020 B3 (Rankin),e,20.7069,185.7614,324.9154,1026,0.0000300,0.99675622,0.0000,10/20.5960/2019,2000,g 13.0,4.0
# From MPEC 2023-KD6
P/2020 B4 (Sheppard),e,11.6037,185.9542,342.0247,7.972265,0.0437856,0.19277537,53.9482,04/04.0/2025,2000,g 10.5,4.0
# From MPC182879
C/2020 F2 (ATLAS),h,07/12.7174/2022,163.5896,250.3026,48.2441,1.002954,8.813563,2000,4.5,4.0
# From MPEC 2021-O56
C/2020 F3 (NEOWISE),e,129.1311,61.0857,37.3618,399.2042,0.0001236,0.99926396,0.0000,07/04.7982/2020,2000,g  7.5,5.2
# From MPEC 2024-UQ8
C/2020 F5 (MASTER),e,52.2281,350.5338,310.6315,165.1658,0.0004643,0.97380484,0.0000,03/16.3230/2021,2000,g  6.5,3.2
# From MPEC 2020-L06
C/2020 F6 (PANSTARRS),e,174.5839,207.8514,344.3542,347.6713,0.0001520,0.98993798,0.0000,04/10.5898/2020,2000,g 14.5,2.8
# From MPEC 2024-A43
C/2020 F7 (Lemmon),e,93.9781,321.8263,227.9748,564.8549,0.0000734,0.99055618,0.0000,11/13.7899/2021,2000,g  7.0,4.0
# From MPEC 2023-J29
C/2020 F8 (SWAN),h,05/26.0172/2020,110.5526,259.7980,68.0999,1.000076,0.432191,2000,10.0,4.0
# From MPEC 2020-L06
P/2020 G1 (Pimentel),e,18.5088,240.1033,207.6406,3.606751,0.1438897,0.86080966,264.9967,04/04.0/2025,2000,g 17.0,4.0
# From MPEC 2022-YB4
C/2020 H2 (Pruyne),e,124.7832,277.6716,26.5905,178.4506,0.0004135,0.99535687,0.0000,04/27.0799/2020,2000,g 14.0,3.2
# From MPEC 2020-HM1
C/2020 H3 (Wierzchos),p,06/05.7162/2020,62.5292,30.4456,2.300288,270.6227,2000,13.5,4.0
# From MPEC 2020-L06
C/2020 H4 (Leonard),e,84.4945,307.4742,117.5644,47.83966,0.0029787,0.98062707,0.0000,08/29.3209/2020,2000,g 15.0,3.2
# From MPEC 2024-P23
C/2020 H5 (Robinson),e,70.2343,210.6178,326.2674,5686,0.0000023,0.99835810,0.0000,12/09.9428/2020,2000,g  5.0,4.0
# From MPEC 2024-JU4
C/2020 H6 (ATLAS),e,79.9857,213.6983,20.2011,2098,0.0000103,0.99776147,0.0000,09/29.6731/2021,2000,g  8.0,3.2
# From MPEC 2020-KB7
C/2020 H7 (Lemmon),e,135.9235,323.5194,82.6780,1405,0.0000187,0.99685380,0.0000,06/02.9510/2020,2000,g 11.0,4.0
# From MPEC 2021-N06
C/2020 H8 (PANSTARRS),e,99.7049,68.4415,128.8345,593.1088,0.0000682,0.99213494,0.0000,06/04.7558/2020,2000,g 10.5,4.0
# From MPEC 2022-ED3
A/2020 H9,e,137.8746,213.1333,312.6442,345.3090,0.0001536,0.99257803,0.0000,12/21.8583/2019,2000,g 18.0,2.0
# From MPEC 2023-HN7
C/2020 H11 (PANSTARRS-Lemmon),h,09/12.8576/2020,151.3754,303.0563,91.3736,1.000062,7.621102,2000,8.5,4.0
# From MPEC 2023-KD6
C/2020 J1 (SONEAR),e,142.3067,226.5926,341.5980,17301,0.0000004,0.99980662,0.0000,04/18.1634/2021,2000,g  8.5,3.2
# From MPC182879
C/2020 K1 (PANSTARRS),e,89.6714,94.3664,213.9712,2821,0.0000066,0.99891058,0.0000,05/08.8405/2023,2000,g  5.5,4.0
# From MPEC 2021-N06
C/2020 K2 (PANSTARRS),h,08/04.7438/2020,90.9908,288.4319,67.3166,1.001305,8.880276,2000,10.8,4.0
# From MPEC 2020-KF9
C/2020 K3 (Leonard),p,06/01.0032/2020,129.0152,64.4924,1.583069,28.3546,2000,14.5,4.0
# From MPEC 2020-L06
C/2020 K4 (PANSTARRS),e,125.5849,264.2754,308.8010,23.93564,0.0084166,0.92708621,15.6221,04/04.0/2025,2000,g 16.5,4.0
# From MPEC 2021-R75
C/2020 K5 (PANSTARRS),h,06/04.4371/2021,67.0684,86.1416,249.6406,1.000870,1.540257,2000,11.0,4.0
# From MPEC 2023-N01
C/2020 K6 (Rankin),h,09/14.9359/2021,103.6323,291.5971,44.2878,1.002376,5.866463,2000,8.0,4.0
# From MPEC 2023-A50
C/2020 K7 (PANSTARRS),e,32.0444,286.1300,358.1029,94.97455,0.0010649,0.93272160,2.1163,04/04.0/2025,2000,g  8.0,4.0
# From MPEC 2021-P47
C/2020 K8 (Catalina-ATLAS),h,09/15.6403/2020,31.3920,181.3367,260.1237,1.000306,0.471270,2000,15.0,3.2
# From MPEC 2021-BE3
P/2020 K9 (Lemmon-PANSTARRS),e,23.1921,166.3123,197.0947,4.206997,0.1142210,0.32024375,172.7648,04/04.0/2025,2000,g 12.5,4.0
# From MPEC 2023-C45
P/2020 M1 (PANSTARRS),e,8.5344,142.6128,72.5097,5.312512,0.0804923,0.47338038,155.2506,04/04.0/2025,2000,g 14.5,4.0
# From MPEC 2022-H30
C/2020 M3 (ATLAS),e,23.4714,71.1708,328.6600,27.29515,0.0069116,0.95331798,11.2048,04/04.0/2025,2000,g 14.5,4.0
# From MPEC 2023-N01
A/2020 M4,e,160.1051,348.6166,104.4969,255073,0.0000000,0.99997671,0.0000,11/23.0041/2020,2000,g 14.5,2.0
# From MPEC 2024-NE4
P/2020 MK4 (PANSTARRS),e,6.7821,0.6708,93.4717,6.223023,0.0634895,0.01481730,312.8018,04/04.0/2025,2000,g  8.0,4.0
# From MPEC 2023-FK0
C/2020 M5 (ATLAS),h,08/19.7929/2021,93.1786,352.0296,126.2461,1.000150,2.999786,2000,9.0,4.0
# From MPEC 2022-GA9
C/2020 N1 (PANSTARRS),h,03/13.0684/2021,29.7637,279.8594,186.8255,1.000820,1.317305,2000,12.5,4.0
# From MPEC 2021-P47
C/2020 N2 (ATLAS),e,161.0383,257.1827,331.2216,101.6902,0.0009611,0.98244821,0.0000,08/24.3390/2020,2000,g 16.0,3.2
# From MPEC 2024-JU4
C/2020 O2 (Amaral),e,71.7619,256.7930,10.1891,23208,0.0000003,0.99979070,0.0000,08/27.4210/2021,2000,g  8.0,3.2
# From MPEC 2023-C45
P/2020 O3 (PANSTARRS),e,8.4445,266.8184,81.2722,4.646455,0.0984060,0.10240090,150.4902,04/04.0/2025,2000,g 12.0,4.0
# From MPEC 2021-BE3
C/2020 P1 (NEOWISE),h,10/21.1537/2020,45.1308,53.4839,8.9266,1.000428,0.341512,2000,14.0,3.2
# From MPEC 2024-JU4
C/2020 P3 (ATLAS),h,04/22.8080/2021,61.8615,19.4819,82.3418,1.003585,6.815459,2000,6.0,4.0
# From MPEC 2022-PB4
C/2020 PV6 (PANSTARRS),e,128.1611,329.1317,71.2917,41.72638,0.0036567,0.94508788,4.7028,04/04.0/2025,2000,g 10.0,4.0
# From MPEC 2022-L66
C/2020 Q1 (Borisov),e,142.9302,52.4068,10.0231,62.25542,0.0020065,0.97880482,0.0000,08/15.1767/2020,2000,g 14.0,4.0
# From MPEC 2023-CD7
